{
  "type": "FeatureCollection",
  "features": [
    {"type":"Feature","properties":{"county":"Baringo"},"geometry":{"type":"Point","coordinates":[35.95,0.47]}},
    {"type":"Feature","properties":{"county":"Bomet"},"geometry":{"type":"Point","coordinates":[35.35,-0.78]}},
    {"type":"Feature","properties":{"county":"Bungoma"},"geometry":{"type":"Point","coordinates":[34.56,0.57]}},
    {"type":"Feature","properties":{"county":"Busia"},"geometry":{"type":"Point","coordinates":[34.12,0.46]}},
    {"type":"Feature","properties":{"county":"Elgeyo Marakwet"},"geometry":{"type":"Point","coordinates":[35.57,0.52]}},
    {"type":"Feature","properties":{"county":"Embu"},"geometry":{"type":"Point","coordinates":[37.45,-0.53]}},
    {"type":"Feature","properties":{"county":"Garissa"},"geometry":{"type":"Point","coordinates":[39.65,-0.46]}},
    {"type":"Feature","properties":{"county":"Homa Bay"},"geometry":{"type":"Point","coordinates":[34.46,-0.53]}},
    {"type":"Feature","properties":{"county":"Isiolo"},"geometry":{"type":"Point","coordinates":[37.58,0.35]}},
    {"type":"Feature","properties":{"county":"Kajiado"},"geometry":{"type":"Point","coordinates":[36.78,-1.85]}},
    {"type":"Feature","properties":{"county":"Kakamega"},"geometry":{"type":"Point","coordinates":[34.75,0.28]}},
    {"type":"Feature","properties":{"county":"Kericho"},"geometry":{"type":"Point","coordinates":[35.29,-0.37]}},
    {"type":"Feature","properties":{"county":"Kiambu"},"geometry":{"type":"Point","coordinates":[36.83,-1.17]}},
    {"type":"Feature","properties":{"county":"Kilifi"},"geometry":{"type":"Point","coordinates":[39.85,-3.63]}},
    {"type":"Feature","properties":{"county":"Kirinyaga"},"geometry":{"type":"Point","coordinates":[37.33,-0.50]}},
    {"type":"Feature","properties":{"county":"Kisii"},"geometry":{"type":"Point","coordinates":[34.77,-0.68]}},
    {"type":"Feature","properties":{"county":"Kisumu"},"geometry":{"type":"Point","coordinates":[34.76,-0.10]}},
    {"type":"Feature","properties":{"county":"Kitui"},"geometry":{"type":"Point","coordinates":[38.01,-1.37]}},
    {"type":"Feature","properties":{"county":"Kwale"},"geometry":{"type":"Point","coordinates":[39.46,-4.18]}},
    {"type":"Feature","properties":{"county":"Laikipia"},"geometry":{"type":"Point","coordinates":[36.95,0.20]}},
    {"type":"Feature","properties":{"county":"Lamu"},"geometry":{"type":"Point","coordinates":[40.90,-2.27]}},
    {"type":"Feature","properties":{"county":"Machakos"},"geometry":{"type":"Point","coordinates":[37.26,-1.52]}},
    {"type":"Feature","properties":{"county":"Makueni"},"geometry":{"type":"Point","coordinates":[37.94,-2.28]}},
    {"type":"Feature","properties":{"county":"Mandera"},"geometry":{"type":"Point","coordinates":[41.84,3.94]}},
    {"type":"Feature","properties":{"county":"Marsabit"},"geometry":{"type":"Point","coordinates":[37.99,2.33]}},
    {"type":"Feature","properties":{"county":"Meru"},"geometry":{"type":"Point","coordinates":[37.65,0.05]}},
    {"type":"Feature","properties":{"county":"Migori"},"geometry":{"type":"Point","coordinates":[34.47,-1.06]}},
    {"type":"Feature","properties":{"county":"Mombasa"},"geometry":{"type":"Point","coordinates":[39.67,-4.04]}},
    {"type":"Feature","properties":{"county":"Muranga"},"geometry":{"type":"Point","coordinates":[37.16,-0.72]}},
    {"type":"Feature","properties":{"county":"Nairobi"},"geometry":{"type":"Point","coordinates":[36.82,-1.29]}},
    {"type":"Feature","properties":{"county":"Nakuru"},"geometry":{"type":"Point","coordinates":[36.07,-0.28]}},
    {"type":"Feature","properties":{"county":"Nandi"},"geometry":{"type":"Point","coordinates":[35.20,0.11]}},
    {"type":"Feature","properties":{"county":"Narok"},"geometry":{"type":"Point","coordinates":[35.87,-1.10]}},
    {"type":"Feature","properties":{"county":"Nyamira"},"geometry":{"type":"Point","coordinates":[34.93,-0.56]}},
    {"type":"Feature","properties":{"county":"Nyandarua"},"geometry":{"type":"Point","coordinates":[36.56,-0.35]}},
    {"type":"Feature","properties":{"county":"Nyeri"},"geometry":{"type":"Point","coordinates":[36.95,-0.42]}},
    {"type":"Feature","properties":{"county":"Samburu"},"geometry":{"type":"Point","coordinates":[36.72,1.09]}},
    {"type":"Feature","properties":{"county":"Siaya"},"geometry":{"type":"Point","coordinates":[34.27,0.07]}},
    {"type":"Feature","properties":{"county":"Taita Taveta"},"geometry":{"type":"Point","coordinates":[38.37,-3.40]}},
    {"type":"Feature","properties":{"county":"Tana River"},"geometry":{"type":"Point","coordinates":[40.08,-1.53]}},
    {"type":"Feature","properties":{"county":"Tharaka Nithi"},"geometry":{"type":"Point","coordinates":[37.80,-0.30]}},
    {"type":"Feature","properties":{"county":"Trans Nzoia"},"geometry":{"type":"Point","coordinates":[34.95,1.02]}},
    {"type":"Feature","properties":{"county":"Turkana"},"geometry":{"type":"Point","coordinates":[35.61,3.12]}},
    {"type":"Feature","properties":{"county":"Uasin Gishu"},"geometry":{"type":"Point","coordinates":[35.27,0.52]}},
    {"type":"Feature","properties":{"county":"Vihiga"},"geometry":{"type":"Point","coordinates":[34.72,0.08]}},
    {"type":"Feature","properties":{"county":"Wajir"},"geometry":{"type":"Point","coordinates":[40.05,1.75]}},
    {"type":"Feature","properties":{"county":"West Pokot"},"geometry":{"type":"Point","coordinates":[35.22,1.90]}}
  ]
}